[Satellite]
VERSION=1.1
NAME=COSMOS 2425 (716)
NICKNAME=COSMOS 2425 (716)
TLE1=1 29670U 06062A   15055.42927409 -.00000069  00000-0  10000-3 0  9991
TLE2=2 29670  65.8086 333.2230 0023761 344.8598 121.0617  2.13105024 63550
